#dP2018  4 25  0  0  0.00000000      96 __u+U IGS08 FIT  IAC
## 1998 259200.00000000   900.00000000 58233 0.0000000000000
+   84   C01C02C03C04C05C06C07C08C09C10C11C12C13C14E01E02E03
+        E04E05E07E08E09E11E12E14E18E19E24E26E30G01G02G03G05
+        G06G07G08G09G10G11G12G13G14G15G16G17G18G19G20G21G22
+        G23G24G25G26G27G28G29G30G31G32J03R01R02R03R04R07R08
+        R09R10R11R13R14R15R16R17R18R19R20R21R22R23R24R26  0
++        14 12 12 13 12  9  8  9  8  8  7  7  8  8  7  7  7
++         7  7  7  7  7  7  7  7  7  7  7  7  7  3  3  3  3
++         3  3  3  3  3  3  3  3  3  3  3  3  3  3  3  3  3
++         3  3  3  3  3  3  3  3  3  3 12  5  5  5  5  5  5
++         5  5  5  5  5  5  5  5  5  5  5  5  5  5  5  8  0
%c M  cc GPS ccc cccc cccc cccc cccc ccccc ccccc ccccc ccccc
%c cc cc ccc ccc cccc cccc cccc cccc ccccc ccccc ccccc ccccc
%f  1.2500000  1.025000000  0.00000000000  0.000000000000000
%f  0.0000000  0.000000000  0.00000000000  0.000000000000000
%i    0    0    0    0      0      0      0      0         0
%i    0    0    0    0      0      0      0      0         0
/* INFORMATION & ANALYSIS CENTER (IAC)            FINAL DATA
/* S/V CLOCKS ARE ALIGNED TO GPS & GLONASS TIME RESPECTIVELY
/* USING THE BROADCAST EPHEMERIS                            
/* PCV:IGS14_1992 OL/AL:FES2004  NONE     YN ORB:CoN CLK:CoN
*  2018 04 25 13 45  0.00000000
PC01 -32268.228556  27125.932608   -394.876754   -380.303533
PC02   4374.440286  41925.809626   1128.194895    580.452515
PC03 -14858.874317  39504.380045    385.732758    286.189899
PC04 -39604.734420  14468.492957     83.896268   -202.472502
PC05  21944.052522  35998.414792   1344.606543     40.055095
PC06 -23073.355013  34704.193295  -7166.916376      2.809968
PC07  -8024.972278  32199.340186 -25637.886156    175.016616
PC08 -17926.258875  18023.691959  33657.006020    305.121130
PC09 -10837.694054  34410.987049 -21898.080591   -187.872950
PC10   3466.674589  38863.639430 -15427.905799   -184.157362
PC11   7939.270203  13643.078297  23074.630231   -482.271965
PC12 -13539.088241  16510.497435  17977.927258    424.544963
PC13  -1294.169739  23666.857931  34894.279094   -303.936434
PC14   3342.308662  24694.631439 -12553.661763    183.566377
PE01  -3360.073069 -26259.749514  13237.053365   -329.909324
PE02   3368.940716  26269.201077 -13232.809236     11.674306
PE03  -7776.964348  26149.622227 -11466.566275    -24.965919
PE04  -8871.700743 -16237.933293  23112.299187    -21.492354
PE05 -19922.385876  20769.346577   6935.036807    277.708026
PE07  20372.353730  -3261.789150 -21214.806973     44.098637
PE08   8891.224626  16088.582624 -23190.528964   6597.388204
PE09 -20219.136352   3450.265917  21349.449683   6810.057394
PE11 -29544.041398  -1997.867799   -468.676175   1832.162039
PE12 -19442.504290 -13225.881183 -17987.019638   4016.237281
PE14 -12668.466457  18329.964615  12426.010943   6593.349658
PE18   1090.652029 -21614.695053 -22736.084662   6255.780217
PE19   9193.437897 -26331.930580   9910.907984     21.692692
PE24 -19247.666251  -7919.961618 -21056.799568   6740.402231
PE26  22361.097494  -9938.573131 -16645.479977   6009.959841
PE30  15978.191404  24282.446543   5594.988646   5891.922503
PG01 -22623.930425 -14073.577237  -2230.051623    -43.174809
PG02   5034.155040  17879.055919  19634.576088    134.158785
PG03 -12871.262331 -14946.637518  17798.069189     57.858258
PG05   2358.198832  26304.573393  -1455.297327     -9.170744
PG06  -9576.224076  11814.715956  21810.926937    407.073479
PG07 -23497.258932  -3439.900392 -12136.845700    201.935976
PG08 -10188.053033 -11225.953594 -21765.904916    -99.066852
PG09 -23575.688199   6011.007105  10636.674307    512.256974
PG10  11301.209465 -16931.479122 -16934.387309    181.273389
PG11 -21985.145130 -10368.038946 -11084.842369   -737.133817
PG12  10230.250686  18153.943472  16395.801072    337.515559
PG13   -307.079833  16174.717130 -21177.468803    -94.914835
PG14  13835.451234 -18032.690786  13887.223303    -96.440981
PG15  12171.217980  10770.058102 -21252.807736   -355.052227
PG16    359.123298 -26287.143556  -1552.550408     26.696525
PG17 -20164.708791  16053.821115   6514.002928   -103.835341
PG18 -17656.811028 -17124.223197 -10711.995461      1.235193
PG19 -16430.151324  17010.679038  11988.943364   -441.098517
PG20  16223.066991   5545.419064 -20448.642406    506.651854
PG21  22185.633799   -480.306460 -13787.605600   -403.060858
PG22 -10474.418596 -21741.003732  11340.107229   -370.013358
PG23 -17740.336095  -5399.091573  19442.430139   -217.677958
PG24  21349.910646  15036.348852  -5739.517742    -48.938075
PG25  14770.031996   3675.499822  21610.033127   -575.170178
PG26   5433.452712 -24203.096937   9295.511278   -170.634454
PG27   3724.286532 -17729.437838 -19401.339014    370.013965
PG28 -12840.570259  13694.322219 -18188.714495    709.551112
PG29  22861.034606  -2232.452957  13301.904815    460.495793
PG30 -18408.598312   4597.319128 -18645.995136     80.999199
PG31   8694.294396 -12486.759631  21817.961502    126.039669
PG32  20242.128659 -16512.665193   4580.643105   -517.019630
PJ03 -29145.815170  30554.182610   5484.903469    -15.940302
PR01   8447.949584   8102.991140 -22655.552273     25.325357
PR02  14327.019123 -12035.428558 -17269.963525    306.604470
PR03  10955.098734 -22964.812019  -1438.033827    130.429432
PR04    873.096302 -20233.564768  15519.009414    258.524700
PR07 -10868.860863  23070.690669   1138.624784    -36.016180
PR08  -1378.860087  20597.432648 -14930.079854    -13.783653
PR09 -13200.370535   -401.516859 -21827.260774     31.937412
PR10  -1337.507752  14682.676802 -20819.027094     23.208854
PR11  11330.615644  21710.235027  -7053.572437    -27.292973
PR13  12807.982950    -17.723592  22034.275531     -9.780190
PR14   1565.247496 -14726.038495  20777.688739     26.655169
PR15  -9023.067488 -21244.611496  10747.951578     -9.272831
PR16 -17470.753327 -15746.481043  -9760.903786     91.052690
PR17  14314.010744 -10039.251604 -18574.431839    127.493255
PR18  -4013.680820 -10171.411101 -23034.438164    193.210340
PR19 -20266.829088  -5021.042162 -14656.206420    -50.919786
PR20 -25031.637942   3594.617317   3574.480711   -335.653278
PR21 -13981.232435  10055.018346  18812.743104     19.271766
PR22   5928.881083   9814.682468  22774.791327    -37.796492
PR23  22535.557394   3065.973505  11534.665445    149.847807
PR24  24715.131340  -4429.371692  -4450.757764   -165.466820
PR26 -25031.682036   3835.995377   2997.889396     15.016296
EOF
